start=new Date('2022-03-25T00:00:00.000Z').valueOf();
sats=[{"MEAN_MOTION_DDOT":"0.0000000000000","REV_AT_EPOCH":"374","GP_ID":"199623938","FILE":"3373054","ELEMENT_SET_NO":"999","TLE_LINE1":"1 51126U 22005Y   22083.91667824 -.00721383  00000-0 -13695-1 0  9993","TLE_LINE2":"2 51126  53.2174 314.8242 0001417  56.6678 226.0709 15.49947454  3746","EPOCH":"2022-03-24T22:00:00.999936","NORAD_CAT_ID":"51126","MEAN_ANOMALY":"226.0709","SITE":"AFETR","APOAPSIS":"417.844","REF_FRAME":"TEME","OBJECT_ID":"2022-005Y","MEAN_ELEMENT_THEORY":"SGP4","BSTAR":"-0.01369500000000","TIME_SYSTEM":"UTC","DECAY_DATE":null,"CLASSIFICATION_TYPE":"U","PERIOD":"92.906","RA_OF_ASC_NODE":"314.8242","ECCENTRICITY":"0.00014170","OBJECT_TYPE":"PAYLOAD","PERIAPSIS":"415.919","MEAN_MOTION":"15.49947454","INCLINATION":"53.2174","ARG_OF_PERICENTER":"56.6678","EPHEMERIS_TYPE":"0","COUNTRY_CODE":"US","LAUNCH_DATE":"2022-01-19","RCS_SIZE":"LARGE","MEAN_MOTION_DOT":"-0.00721383","OBJECT_NAME":"STARLINK-3386","SEMIMAJOR_AXIS":"6795.017","CENTER_NAME":"EARTH"},{"ELEMENT_SET_NO":"999","EPOCH":"2022-03-24T22:00:00.999936","TLE_LINE1":"1 51127U 22005Z   22083.91667824 -.00721649  00000-0 -13638-1 0  9996","TLE_LINE2":"2 51127  53.2174 314.8229 0001458  52.7856 237.5642 15.50075474  3741","REV_AT_EPOCH":"374","MEAN_MOTION_DDOT":"0.0000000000000","FILE":"3373054","GP_ID":"199624269","OBJECT_ID":"2022-005Z","MEAN_ELEMENT_THEORY":"SGP4","BSTAR":"-0.01363800000000","REF_FRAME":"TEME","TIME_SYSTEM":"UTC","DECAY_DATE":null,"MEAN_ANOMALY":"237.5642","NORAD_CAT_ID":"51127","APOAPSIS":"417.498","SITE":"AFETR","ARG_OF_PERICENTER":"52.7856","MEAN_MOTION":"15.50075474","INCLINATION":"53.2174","LAUNCH_DATE":"2022-01-19","EPHEMERIS_TYPE":"0","COUNTRY_CODE":"US","CLASSIFICATION_TYPE":"U","OBJECT_TYPE":"PAYLOAD","ECCENTRICITY":"0.00014580","PERIAPSIS":"415.517","PERIOD":"92.899","RA_OF_ASC_NODE":"314.8229","CENTER_NAME":"EARTH","SEMIMAJOR_AXIS":"6794.643","RCS_SIZE":"LARGE","MEAN_MOTION_DOT":"-0.00721649","OBJECT_NAME":"STARLINK-3370"},{"APOAPSIS":"420.794","SITE":"AFETR","NORAD_CAT_ID":"51128","MEAN_ANOMALY":"150.3524","DECAY_DATE":null,"TIME_SYSTEM":"UTC","REF_FRAME":"TEME","BSTAR":"-0.00038403000000","OBJECT_ID":"2022-005AA","MEAN_ELEMENT_THEORY":"SGP4","GP_ID":"199623718","FILE":"3373054","MEAN_MOTION_DDOT":"0.0000000000000","REV_AT_EPOCH":"370","TLE_LINE2":"2 51128  53.2150 314.8272 0001579  46.3640 150.3524 15.48976665  3704","TLE_LINE1":"1 51128U 22005AA  22083.91667824 -.00021498  00000-0 -38403-3 0  9991","EPOCH":"2022-03-24T22:00:00.999936","ELEMENT_SET_NO":"999","OBJECT_NAME":"STARLINK-3400","MEAN_MOTION_DOT":"-0.00021498","RCS_SIZE":"LARGE","SEMIMAJOR_AXIS":"6797.855","CENTER_NAME":"EARTH","PERIOD":"92.965","RA_OF_ASC_NODE":"314.8272","OBJECT_TYPE":"PAYLOAD","ECCENTRICITY":"0.00015790","PERIAPSIS":"418.647","CLASSIFICATION_TYPE":"U","COUNTRY_CODE":"US","EPHEMERIS_TYPE":"0","LAUNCH_DATE":"2022-01-19","INCLINATION":"53.2150","MEAN_MOTION":"15.48976665","ARG_OF_PERICENTER":"46.3640"},{"MEAN_ANOMALY":"337.9021","NORAD_CAT_ID":"51129","APOAPSIS":"421.252","SITE":"AFETR","BSTAR":"0.00017360000000","MEAN_ELEMENT_THEORY":"SGP4","OBJECT_ID":"2022-005AB","REF_FRAME":"TEME","DECAY_DATE":null,"TIME_SYSTEM":"UTC","REV_AT_EPOCH":"370","MEAN_MOTION_DDOT":"0.0000000000000","FILE":"3373054","GP_ID":"199623498","ELEMENT_SET_NO":"999","EPOCH":"2022-03-24T22:00:00.999936","TLE_LINE2":"2 51129  53.2179 313.8883 0001718  37.2414 337.9021 15.48852357  3702","TLE_LINE1":"1 51129U 22005AB  22083.91667824  .00009066  00000-0  17360-3 0  9996","RCS_SIZE":"LARGE","MEAN_MOTION_DOT":"0.00009066","OBJECT_NAME":"STARLINK-3396","CENTER_NAME":"EARTH","SEMIMAJOR_AXIS":"6798.219","CLASSIFICATION_TYPE":"U","OBJECT_TYPE":"PAYLOAD","PERIAPSIS":"418.916","ECCENTRICITY":"0.00017180","PERIOD":"92.972","RA_OF_ASC_NODE":"313.8883","ARG_OF_PERICENTER":"37.2414","INCLINATION":"53.2179","MEAN_MOTION":"15.48852357","LAUNCH_DATE":"2022-01-19","EPHEMERIS_TYPE":"0","COUNTRY_CODE":"US"},{"MEAN_MOTION_DDOT":"0.0000000000000","REV_AT_EPOCH":"370","GP_ID":"199623608","FILE":"3373054","ELEMENT_SET_NO":"999","TLE_LINE2":"2 51130  53.2140 314.8349 0001795  46.1202 126.1305 15.49037453  3705","TLE_LINE1":"1 51130U 22005AC  22083.91667824  .00011962  00000-0  22492-3 0  9998","EPOCH":"2022-03-24T22:00:00.999936","NORAD_CAT_ID":"51130","MEAN_ANOMALY":"126.1305","SITE":"AFETR","APOAPSIS":"420.763","REF_FRAME":"TEME","BSTAR":"0.00022492000000","MEAN_ELEMENT_THEORY":"SGP4","OBJECT_ID":"2022-005AC","DECAY_DATE":null,"TIME_SYSTEM":"UTC","CLASSIFICATION_TYPE":"U","PERIOD":"92.961","RA_OF_ASC_NODE":"314.8349","ECCENTRICITY":"0.00017950","OBJECT_TYPE":"PAYLOAD","PERIAPSIS":"418.322","INCLINATION":"53.2140","MEAN_MOTION":"15.49037453","ARG_OF_PERICENTER":"46.1202","COUNTRY_CODE":"US","EPHEMERIS_TYPE":"0","LAUNCH_DATE":"2022-01-19","MEAN_MOTION_DOT":"0.00011962","RCS_SIZE":"LARGE","OBJECT_NAME":"STARLINK-3395","SEMIMAJOR_AXIS":"6797.678","CENTER_NAME":"EARTH"},{"BSTAR":"0.00000137590000","OBJECT_ID":"2022-005AD","MEAN_ELEMENT_THEORY":"SGP4","REF_FRAME":"TEME","DECAY_DATE":null,"TIME_SYSTEM":"UTC","MEAN_ANOMALY":"143.4878","NORAD_CAT_ID":"51131","APOAPSIS":"420.757","SITE":"AFETR","ELEMENT_SET_NO":"999","EPOCH":"2022-03-24T22:00:00.999936","TLE_LINE2":"2 51131  53.2156 314.8300 0001520  44.9370 143.4878 15.48975631  3703","TLE_LINE1":"1 51131U 22005AD  22083.91667824 -.00000371  00000-0  13759-5 0  9990","REV_AT_EPOCH":"370","MEAN_MOTION_DDOT":"0.0000000000000","FILE":"3373054","GP_ID":"199624159","CENTER_NAME":"EARTH","SEMIMAJOR_AXIS":"6797.858","RCS_SIZE":"LARGE","MEAN_MOTION_DOT":"-0.00000371","OBJECT_NAME":"STARLINK-3388","ARG_OF_PERICENTER":"44.9370","INCLINATION":"53.2156","MEAN_MOTION":"15.48975631","LAUNCH_DATE":"2022-01-19","COUNTRY_CODE":"US","EPHEMERIS_TYPE":"0","CLASSIFICATION_TYPE":"U","ECCENTRICITY":"0.00015200","OBJECT_TYPE":"PAYLOAD","PERIAPSIS":"418.690","PERIOD":"92.965","RA_OF_ASC_NODE":"314.8300"},{"ARG_OF_PERICENTER":"44.9015","INCLINATION":"53.2153","MEAN_MOTION":"15.49003719","LAUNCH_DATE":"2022-01-19","COUNTRY_CODE":"US","EPHEMERIS_TYPE":"0","CLASSIFICATION_TYPE":"U","OBJECT_TYPE":"PAYLOAD","PERIAPSIS":"418.569","ECCENTRICITY":"0.00015780","RA_OF_ASC_NODE":"314.8317","PERIOD":"92.963","CENTER_NAME":"EARTH","SEMIMAJOR_AXIS":"6797.776","RCS_SIZE":"LARGE","MEAN_MOTION_DOT":"0.00048639","OBJECT_NAME":"STARLINK-3393","ELEMENT_SET_NO":"999","EPOCH":"2022-03-24T22:00:00.999936","TLE_LINE2":"2 51132  53.2153 314.8317 0001578  44.9015 135.6528 15.49003719  3703","TLE_LINE1":"1 51132U 22005AE  22083.91667824  .00048639  00000-0  88660-3 0  9990","REV_AT_EPOCH":"370","MEAN_MOTION_DDOT":"0.0000000000000","FILE":"3373054","GP_ID":"199624049","BSTAR":"0.00088660000000","MEAN_ELEMENT_THEORY":"SGP4","OBJECT_ID":"2022-005AE","REF_FRAME":"TEME","DECAY_DATE":null,"TIME_SYSTEM":"UTC","MEAN_ANOMALY":"135.6528","NORAD_CAT_ID":"51132","APOAPSIS":"420.714","SITE":"AFETR"},{"CLASSIFICATION_TYPE":"U","PERIOD":"92.963","RA_OF_ASC_NODE":"314.8236","OBJECT_TYPE":"PAYLOAD","PERIAPSIS":"418.646","ECCENTRICITY":"0.00014930","INCLINATION":"53.2166","MEAN_MOTION":"15.48996931","ARG_OF_PERICENTER":"58.5478","EPHEMERIS_TYPE":"0","COUNTRY_CODE":"US","LAUNCH_DATE":"2022-01-19","RCS_SIZE":"LARGE","MEAN_MOTION_DOT":"-0.00150101","OBJECT_NAME":"STARLINK-3356","SEMIMAJOR_AXIS":"6797.796","CENTER_NAME":"EARTH","MEAN_MOTION_DDOT":"0.0000000000000","REV_AT_EPOCH":"370","GP_ID":"199623828","FILE":"3373054","ELEMENT_SET_NO":"999","TLE_LINE2":"2 51133  53.2166 314.8236 0001493  58.5478 146.0204 15.48996931  3701","TLE_LINE1":"1 51133U 22005AF  22083.91667824 -.00150101  00000-0 -27732-2 0  9993","EPOCH":"2022-03-24T22:00:00.999936","NORAD_CAT_ID":"51133","MEAN_ANOMALY":"146.0204","SITE":"AFETR","APOAPSIS":"420.676","REF_FRAME":"TEME","BSTAR":"-0.00277320000000","OBJECT_ID":"2022-005AF","MEAN_ELEMENT_THEORY":"SGP4","DECAY_DATE":null,"TIME_SYSTEM":"UTC"},{"EPHEMERIS_TYPE":"0","COUNTRY_CODE":"US","LAUNCH_DATE":"2022-01-19","INCLINATION":"53.2174","MEAN_MOTION":"15.67027868","ARG_OF_PERICENTER":"34.3233","PERIOD":"91.894","RA_OF_ASC_NODE":"312.8825","ECCENTRICITY":"0.00017500","OBJECT_TYPE":"PAYLOAD","PERIAPSIS":"366.234","CLASSIFICATION_TYPE":"U","SEMIMAJOR_AXIS":"6745.550","CENTER_NAME":"EARTH","OBJECT_NAME":"STARLINK-3183","MEAN_MOTION_DOT":"-0.00426424","RCS_SIZE":"LARGE","TLE_LINE2":"2 51134  53.2174 312.8825 0001750  34.3233  73.2568 15.67027868  3709","TLE_LINE1":"1 51134U 22005AG  22083.91667824 -.00426424  00000-0 -41304-2 0  9999","EPOCH":"2022-03-24T22:00:00.999936","ELEMENT_SET_NO":"999","GP_ID":"199623939","FILE":"3373054","MEAN_MOTION_DDOT":"0.0000000000000","REV_AT_EPOCH":"370","DECAY_DATE":null,"TIME_SYSTEM":"UTC","REF_FRAME":"TEME","BSTAR":"-0.00413040000000","OBJECT_ID":"2022-005AG","MEAN_ELEMENT_THEORY":"SGP4","APOAPSIS":"368.595","SITE":"AFETR","NORAD_CAT_ID":"51134","MEAN_ANOMALY":"73.2568"},{"OBJECT_NAME":"STARLINK-3363","MEAN_MOTION_DOT":"-0.00002527","RCS_SIZE":"LARGE","CENTER_NAME":"EARTH","SEMIMAJOR_AXIS":"6797.936","OBJECT_TYPE":"PAYLOAD","ECCENTRICITY":"0.00014940","PERIAPSIS":"418.786","RA_OF_ASC_NODE":"314.8188","PERIOD":"92.966","CLASSIFICATION_TYPE":"U","LAUNCH_DATE":"2022-01-19","COUNTRY_CODE":"US","EPHEMERIS_TYPE":"0","ARG_OF_PERICENTER":"50.3455","MEAN_MOTION":"15.48949055","INCLINATION":"53.2174","SITE":"AFETR","APOAPSIS":"420.817","MEAN_ANOMALY":"162.1176","NORAD_CAT_ID":"51135","TIME_SYSTEM":"UTC","DECAY_DATE":null,"OBJECT_ID":"2022-005AH","MEAN_ELEMENT_THEORY":"SGP4","BSTAR":"-0.00003789900000","REF_FRAME":"TEME","FILE":"3373054","GP_ID":"199624270","REV_AT_EPOCH":"370","MEAN_MOTION_DDOT":"0.0000000000000","EPOCH":"2022-03-24T22:00:00.999936","TLE_LINE1":"1 51135U 22005AH  22083.91667824 -.00002527  00000-0 -37899-4 0  9990","TLE_LINE2":"2 51135  53.2174 314.8188 0001494  50.3455 162.1176 15.48949055  3706","ELEMENT_SET_NO":"999"}];
